OBJECT_NAME,OBJECT_ID,EPOCH,MEAN_MOTION,ECCENTRICITY,INCLINATION,RA_OF_ASC_NODE,ARG_OF_PERICENTER,MEAN_ANOMALY,EPHEMERIS_TYPE,CLASSIFICATION_TYPE,NORAD_CAT_ID,ELEMENT_SET_NO,REV_AT_EPOCH,BSTAR,MEAN_MOTION_DOT,MEAN_MOTION_DDOT
USA 167,2003-008A,2026-07-18T14:07:38.839008,1.00270365,.00035595,11.0223,43.1234,314.6262,28.7703,0,U,27691,999,708,0,-.7E-7,0
USA 169 (MILSTAR-2 4),2003-012A,2026-07-18T08:48:50.477760,1.00273131,.0099433,12.3959,29.5845,10.3702,180.5853,0,U,27711,999,3326,0,-.208E-5,0
ASIASAT 4,2003-014A,2026-07-17T13:07:38.548416,1.00272159,.0002844,4.7787,75.3623,40.6527,163.8071,0,U,27718,999,4560,0,-.234E-5,0
HELLAS-SAT 2,2003-020A,2026-07-18T09:45:17.388864,1.00271841,.00038247,7.4304,67.5073,82.9404,282.0485,0,U,27811,999,4316,0,-.95E-6,0
THURAYA-2,2003-026A,2026-07-18T04:52:45.829344,1.00272465,.00024133,8.8854,31.8282,27.1224,354.2570,0,U,27825,999,8466,0,.114E-5,0
OPTUS C1,2003-028B,2026-07-18T13:25:38.792928,1.00269175,.0005332,6.9663,69.0263,43.7660,180.6409,0,U,27831,999,5337,0,-.163E-5,0
USA 170,2003-040A,2026-07-18T04:54:38.681568,1.00276124,.00018621,10.5644,47.6494,73.3862,272.9158,0,U,27875,999,3330,0,.114E-5,0
GALAXY 13 (HORIZONS-1),2003-044A,2026-07-18T14:31:38.665632,1.00272816,.00021057,1.4975,83.4566,36.2663,244.5819,0,U,27954,999,4688,0,.125E-5,0
YAMAL 202,2003-053A,2026-07-18T11:06:38.553408,1.00271722,.00031524,6.4188,70.5558,45.1132,150.7897,0,U,28089,999,8301,0,-.91E-6,0
UFO 11 (USA 174),2003-057A,2026-07-18T13:35:02.759424,1.00270705,.00027657,8.9519,33.6512,101.6627,80.3722,0,U,28117,999,8276,0,-.114E-5,0
USA 176 (DSP 22),2004-004A,2026-07-18T09:34:03.466272,1.00264981,.00011236,12.1042,25.8365,302.9001,61.4571,0,U,28158,999,3325,0,-.308E-5,0
ABS-4 (MOBISAT-1),2004-007A,2026-07-17T21:39:46.813824,1.00274106,.00045732,6.1161,71.6293,47.9675,202.0344,0,U,28184,999,5264,0,.27E-6,0
INTELSAT 10-02,2004-022A,2026-07-18T13:13:04.399104,1.00270469,.00001558,0.0532,253.8961,359.8199,239.8937,0,U,28358,999,8087,0,-.19E-6,0
ANIK F2,2004-027A,2026-07-18T12:41:52.390176,1.00271703,.00036466,3.3669,79.0273,33.7870,262.8517,0,U,28378,999,4157,0,-.58E-6,0
AMC-15,2004-041A,2026-07-18T12:43:29.735328,1.00271563,.00022918,0.0419,284.6712,189.6192,267.8589,0,U,28446,999,7961,0,-.96E-6,0
NSS-10,2005-003A,2026-07-18T11:20:12.660864,1.00272225,.00027762,6.5266,70.0708,43.0537,315.7453,0,U,28526,999,5346,0,-.262E-5,0
INMARSAT 4-F1,2005-009A,2026-07-18T09:53:38.876064,1.00271874,.00026683,5.2103,42.7947,72.7611,147.1634,0,U,28628,999,7798,0,.23E-6,0
DIRECTV 8,2005-019A,2026-07-18T14:07:58.063872,1.00272236,.00030615,0.0181,61.4624,61.3631,266.4926,0,U,28659,999,7738,0,-.6E-7,0
GALAXY 28 (G-28),2005-022A,2026-07-18T11:23:04.886304,1.00271261,.00024774,3.3762,78.5448,33.1919,328.2124,0,U,28702,999,5229,0,-.209E-5,0
THAICOM 4,2005-028A,2026-07-18T13:06:38.697408,1.00272854,.00015833,0.3244,85.5246,6.4812,160.4957,0,U,28786,999,5256,0,-.37E-5,0
ANIK F1R,2005-036A,2026-07-18T10:05:38.593248,1.00271860,.00039134,4.3908,76.1904,20.6479,243.4827,0,U,28868,999,4676,0,-.84E-6,0
SYRACUSE 3A,2005-041B,2026-07-18T04:53:38.244768,1.00272854,.00029088,4.7179,75.4553,34.5832,306.0235,0,U,28885,999,7605,0,.119E-5,0
INMARSAT 4-F2,2005-044A,2026-07-18T12:11:40.284960,1.00271337,.00028551,5.1355,43.6773,60.6341,158.4083,0,U,28899,999,7583,0,-.27E-5,0
METEOSAT-9 (MSG-2),2005-049B,2026-07-18T14:53:51.313056,1.00273980,.00023679,9.4309,53.8541,357.5918,154.1112,0,U,28912,999,731,0,.113E-5,0
EUTELSAT 174A,2005-052A,2026-07-18T12:20:24.447840,1.00272247,.00059636,4.2963,76.1393,41.7381,177.4834,0,U,28924,999,5264,0,-.1E-7,0
ECHOSTAR 10,2006-003A,2026-07-18T12:42:07.365888,1.00271068,.00016395,0.0471,286.0527,148.9432,301.6793,0,U,28935,999,7477,0,-.63E-6,0
SPAINSAT,2006-007A,2026-07-18T06:16:41.906496,1.00273125,.00048072,0.6420,86.0251,26.6800,247.3262,0,U,28945,999,7452,0,-.225E-5,0
JCSAT-5A,2006-010A,2026-07-18T13:33:38.500416,1.00272596,.0001825,1.1886,83.8671,23.2619,164.6897,0,U,29045,999,7408,0,-.335E-5,0
ASTRA 1KR,2006-012A,2026-07-18T08:10:59.306880,1.00272126,.00034143,0.5526,83.1845,26.1432,328.5499,0,U,29055,999,4600,0,.111E-5,0
GALAXY 16 (G-16),2006-023A,2026-07-18T12:45:14.567040,1.00271553,.0002624,0.0243,146.5204,330.3497,271.7594,0,U,29236,999,7328,0,-.134E-5,0
EUTELSAT 33F,2006-032A,2026-07-18T13:22:55.953984,1.00273842,.00035433,1.7409,81.8933,31.6891,56.5814,0,U,29270,999,4762,0,.148E-5,0
JCSAT-3A,2006-033A,2026-07-18T13:33:38.500416,1.00271923,.00022123,0.0412,253.6863,227.4822,146.6124,0,U,29272,999,4805,0,-.352E-5,0
