USA 167                 
1 27691U 03008A   26199.58864397 -.00000007  00000+0  00000+0 0  9999
2 27691  11.0223  43.1234 0003559 314.6262  28.7703  1.00270365  7085
USA 169 (MILSTAR-2 4)   
1 27711U 03012A   26199.36725090 -.00000208  00000+0  00000+0 0  9992
2 27711  12.3959  29.5845 0099433  10.3702 180.5853  1.00273131 33265
ASIASAT 4               
1 27718U 03014A   26198.54697394 -.00000234  00000+0  00000+0 0  9994
2 27718   4.7787  75.3623 0002844  40.6527 163.8071  1.00272159 45606
HELLAS-SAT 2            
1 27811U 03020A   26199.40645126 -.00000095  00000+0  00000+0 0  9992
2 27811   7.4304  67.5073 0003824  82.9404 282.0485  1.00271841 43168
THURAYA-2               
1 27825U 03026A   26199.20330821  .00000114  00000+0  00000+0 0  9995
2 27825   8.8854  31.8282 0002413  27.1224 354.2570  1.00272465 84668
OPTUS C1                
1 27831U 03028B   26199.55947677 -.00000163  00000+0  00000+0 0  9990
2 27831   6.9663  69.0263 0005332  43.7660 180.6409  1.00269175 53375
USA 170                 
1 27875U 03040A   26199.20461437  .00000114  00000+0  00000+0 0  9994
2 27875  10.5644  47.6494 0001862  73.3862 272.9158  1.00276124 33307
GALAXY 13 (HORIZONS-1)  
1 27954U 03044A   26199.60530863  .00000125  00000+0  00000+0 0  9992
2 27954   1.4975  83.4566 0002105  36.2663 244.5819  1.00272816 46887
YAMAL 202               
1 28089U 03053A   26199.46294622 -.00000091  00000+0  00000+0 0  9999
2 28089   6.4188  70.5558 0003152  45.1132 150.7897  1.00271722 83014
UFO 11 (USA 174)        
1 28117U 03057A   26199.56600416 -.00000114  00000+0  00000+0 0  9994
2 28117   8.9519  33.6512 0002765 101.6627  80.3722  1.00270705 82763
USA 176 (DSP 22)        
1 28158U 04004A   26199.39865123 -.00000308  00000+0  00000+0 0  9996
2 28158  12.1042  25.8365 0001123 302.9001  61.4571  1.00264981 33255
ABS-4 (MOBISAT-1)       
1 28184U 04007A   26198.90262516  .00000027  00000+0  00000+0 0  9998
2 28184   6.1161  71.6293 0004573  47.9675 202.0344  1.00274106 52648
INTELSAT 10-02          
1 28358U 04022A   26199.55074536 -.00000019  00000+0  00000+0 0  9995
2 28358   0.0532 253.8961 0000155 359.8199 239.8937  1.00270469 80870
ANIK F2                 
1 28378U 04027A   26199.52907859 -.00000058  00000+0  00000+0 0  9995
2 28378   3.3669  79.0273 0003646  33.7870 262.8517  1.00271703 41571
AMC-15                  
1 28446U 04041A   26199.53020527 -.00000096  00000+0  00000+0 0  9998
2 28446   0.0419 284.6712 0002291 189.6192 267.8589  1.00271563 79613
NSS-10                  
1 28526U 05003A   26199.47236876 -.00000262  00000+0  00000+0 0  9990
2 28526   6.5266  70.0708 0002776  43.0537 315.7453  1.00272225 53463
INMARSAT 4-F1           
1 28628U 05009A   26199.41225551  .00000023  00000+0  00000+0 0  9995
2 28628   5.2103  42.7947 0002668  72.7611 147.1634  1.00271874 77985
DIRECTV 8               
1 28659U 05019A   26199.58886648 -.00000006  00000+0  00000+0 0  9990
2 28659   0.0181  61.4624 0003061  61.3631 266.4926  1.00272236 77388
GALAXY 28 (G-28)        
1 28702U 05022A   26199.47436211 -.00000209  00000+0  00000+0 0  9993
2 28702   3.3762  78.5448 0002477  33.1919 328.2124  1.00271261 52294
THAICOM 4               
1 28786U 05028A   26199.54628122 -.00000370  00000+0  00000+0 0  9992
2 28786   0.3244  85.5246 0001583   6.4812 160.4957  1.00272854 52563
ANIK F1R                
1 28868U 05036A   26199.42058557 -.00000084  00000+0  00000+0 0  9990
2 28868   4.3908  76.1904 0003913  20.6479 243.4827  1.00271860 46767
SYRACUSE 3A             
1 28885U 05041B   26199.20391487  .00000119  00000+0  00000+0 0  9991
2 28885   4.7179  75.4553 0002908  34.5832 306.0235  1.00272854 76050
INMARSAT 4-F2           
1 28899U 05044A   26199.50810515 -.00000270  00000+0  00000+0 0  9999
2 28899   5.1355  43.6773 0002855  60.6341 158.4083  1.00271337 75833
METEOSAT-9 (MSG-2)      
1 28912U 05049B   26199.62073279  .00000113  00000+0  00000+0 0  9996
2 28912   9.4309  53.8541 0002367 357.5918 154.1112  1.00273980  7317
EUTELSAT 174A           
1 28924U 05052A   26199.51417185 -.00000001  00000+0  00000+0 0  9996
2 28924   4.2963  76.1393 0005963  41.7381 177.4834  1.00272247 52643
ECHOSTAR 10             
1 28935U 06003A   26199.52925192 -.00000063  00000+0  00000+0 0  9996
2 28935   0.0471 286.0527 0001639 148.9432 301.6793  1.00271068 74770
SPAINSAT                
1 28945U 06007A   26199.26159614 -.00000225  00000+0  00000+0 0  9990
2 28945   0.6420  86.0251 0004807  26.6800 247.3262  1.00273125 74520
JCSAT-5A                
1 29045U 06010A   26199.56502894 -.00000335  00000+0  00000+0 0  9993
2 29045   1.1886  83.8671 0001825  23.2619 164.6897  1.00272596 74080
ASTRA 1KR               
1 29055U 06012A   26199.34096420  .00000111  00000+0  00000+0 0  9996
2 29055   0.5526  83.1845 0003414  26.1432 328.5499  1.00272126 46001
GALAXY 16 (G-16)        
1 29236U 06023A   26199.53141860 -.00000134  00000+0  00000+0 0  9995
2 29236   0.0243 146.5204 0002624 330.3497 271.7594  1.00271553 73287
EUTELSAT 33F            
1 29270U 06032A   26199.55759206  .00000148  00000+0  00000+0 0  9998
2 29270   1.7409  81.8933 0003543  31.6891  56.5814  1.00273842 47623
JCSAT-3A                
1 29272U 06033A   26199.56502894 -.00000352  00000+0  00000+0 0  9999
2 29272   0.0412 253.6863 0002212 227.4822 146.6124  1.00271923 48054
